{
  "norad_id": 53434,
  "name": "STARLINK-4498",
  "history": [
    {
      "epoch": "2026-03-28T22:00:01.999584",
      "apogee_km": 492.947156014603,
      "perigee_km": 491.07078174758226,
      "latitude_deg": -13.682237935518437,
      "longitude_deg": -28.59777824021876,
      "semi_major_axis_km": 6870.145968881092,
      "eccentricity": 0.00013656,
      "inclination_deg": 53.2194,
      "raan_deg": 16.5307,
      "arg_perigee_deg": 106.9183,
      "mean_anomaly_deg": 292.1489,
      "mean_motion_rev_day": 15.24592627
    },
    {
      "epoch": "2026-03-29T04:00:01.999584",
      "apogee_km": 492.17061768031544,
      "perigee_km": 490.825543131572,
      "latitude_deg": -29.977992194519345,
      "longitude_deg": -4.597778240218759,
      "semi_major_axis_km": 6869.635080405943,
      "eccentricity": 9.79e-05,
      "inclination_deg": 53.2168,
      "raan_deg": 15.3817,
      "arg_perigee_deg": 99.0547,
      "mean_anomaly_deg": 232.9634,
      "mean_motion_rev_day": 15.24762704
    }
  ]
}